QIANFAN-25              
1 61558U 24185G   26008.19888585  .00000422  00000+0  24970-3 0  9995
2 61558  88.9780  75.1983 0008690 218.0297 142.0272 14.05933953 73226
QIANFAN-26              
1 61559U 24185H   26008.18324064  .00000304  00000+0  29150-3 0  9996
2 61559  88.9792  76.9009 0003668 296.2725  63.8064 13.77827776 72313
QIANFAN-27              
1 61560U 24185J   26008.17800775  .00000536  00000+0  21287-3 0  9995
2 61560  88.9784  73.8473 0007518 185.2039 174.9079 14.27371874 73938
QIANFAN-28              
1 61561U 24185K   26008.14699594  .00000830  00000+0  32840-3 0  9992
2 61561  88.9803  73.8561 0007034 184.0413 176.0726 14.28097150 73941
QIANFAN-29              
1 61562U 24185L   26008.17927958  .00000179  00000+0  25815-3 0  9994
2 61562  88.9770  78.5826 0008899 344.3911  15.6964 13.51022329 71362
QIANFAN-30              
1 61563U 24185M   26008.17417031  .00000185  00000+0  27280-3 0  9996
2 61563  88.9790  78.1188 0006164 330.8203  29.2603 13.49998613 71635
QIANFAN-31              
1 61564U 24185N   26008.13475273  .00000213  00000+0  27847-3 0  9996
2 61564  88.9773  77.8828 0005317 324.2465  35.8333 13.57978764 71749
QIANFAN-32              
1 61565U 24185P   26008.20208286  .00000182  00000+0  26489-3 0  9999
2 61565  88.9833  78.2579 0008808 359.1167   0.9967 13.50746429 71615
